{
    "links": {
        "self": "http://www.neowsapp.com/rest/v1/neo/3797693?api_key=iIulBulltgU6a56xZRHN4H3l9WmuAYTsLGpBGhQ2"
    },
    "id": "3797693",
    "neo_reference_id": "3797693",
    "name": "(2018 AO12)",
    "designation": "2018 AO12",
    "nasa_jpl_url": "http://ssd.jpl.nasa.gov/sbdb.cgi?sstr=3797693",
    "absolute_magnitude_h": 25.4,
    "estimated_diameter": {
        "kilometers": {
            "estimated_diameter_min": 0.022108281,
            "estimated_diameter_max": 0.0494356193
        },
        "meters": {
            "estimated_diameter_min": 22.1082810359,
            "estimated_diameter_max": 49.435619262
        },
        "miles": {
            "estimated_diameter_min": 0.0137374447,
            "estimated_diameter_max": 0.0307178602
        },
        "feet": {
            "estimated_diameter_min": 72.5337327539,
            "estimated_diameter_max": 162.1903570994
        }
    },
    "is_potentially_hazardous_asteroid": false,
    "close_approach_data": [
        {
            "close_approach_date": "2018-01-14",
            "close_approach_date_full": "2018-Jan-14 06:40",
            "epoch_date_close_approach": 1515912000000,
            "relative_velocity": {
                "kilometers_per_second": "3.1753241537",
                "kilometers_per_hour": "11431.1669534738",
                "miles_per_hour": "7102.8825995071"
            },
            "miss_distance": {
                "astronomical": "0.1985897938",
                "lunar": "77.2514297882",
                "kilometers": "29708610.156219206",
                "miles": "18460074.3460528028"
            },
            "orbiting_body": "Earth"
        }
    ],
    "orbital_data": {
        "orbit_id": "2",
        "orbit_determination_date": "2019-07-19 05:26:32",
        "first_observation_date": "2018-01-15",
        "last_observation_date": "2018-01-20",
        "data_arc_in_days": 5,
        "observations_used": 13,
        "orbit_uncertainty": "9",
        "minimum_orbit_intersection": ".198583",
        "jupiter_tisserand_invariant": "3.406",
        "epoch_osculation": "2458135.5",
        "eccentricity": ".4906140169131216",
        "semi_major_axis": "2.320551658073521",
        "inclination": ".6991207850809789",
        "ascending_node_longitude": "77.78588272520794",
        "orbital_period": "1291.175533440227",
        "perihelion_distance": "1.182056487651666",
        "perihelion_argument": "35.55337903564961",
        "aphelion_distance": "3.459046828495376",
        "perihelion_time": "2458132.288088707322",
        "mean_anomaly": ".8955312700847492",
        "mean_motion": ".2788156921164783",
        "equinox": "J2000",
        "orbit_class": {
            "orbit_class_type": "AMO",
            "orbit_class_description": "Near-Earth asteroid orbits similar to that of 1221 Amor",
            "orbit_class_range": "1.017 AU < q (perihelion) < 1.3 AU"
        }
    },
    "is_sentry_object": false
}